start=new Date('2023-05-06T00:00:00.000Z').valueOf();
sats=[{"REF_FRAME":"TEME","LAUNCH_DATE":"2021-01-20","DECAY_DATE":null,"OBJECT_NAME":"STARLINK-2092","COUNTRY_CODE":"US","PERIAPSIS":"546.331","MEAN_ANOMALY":"279.9113","CLASSIFICATION_TYPE":"U","NORAD_CAT_ID":"47373","OBJECT_ID":"2021-005AA","APOAPSIS":"547.981","CENTER_NAME":"EARTH","EPHEMERIS_TYPE":"0","ELEMENT_SET_NO":"999","RA_OF_ASC_NODE":"48.2075","INCLINATION":"53.0550","OBJECT_TYPE":"PAYLOAD","MEAN_ELEMENT_THEORY":"SGP4","REV_AT_EPOCH":"12636","ARG_OF_PERICENTER":"80.2010","TIME_SYSTEM":"UTC","PERIOD":"95.591","GP_ID":"231279038","TLE_LINE1":"1 47373U 21005AA  23125.16917200  .00017173  00000-0  11684-2 0  9992","TLE_LINE2":"2 47373  53.0550  48.2075 0001191  80.2010 279.9113 15.06418755126365","MEAN_MOTION":"15.06418755","ECCENTRICITY":"0.00011910","MEAN_MOTION_DDOT":"0.0000000000000","EPOCH":"2023-05-05T04:03:36.460800","SITE":"AFETR","BSTAR":"0.00116840000000","MEAN_MOTION_DOT":"0.00017173","RCS_SIZE":"LARGE","FILE":"3901296","SEMIMAJOR_AXIS":"6925.291"},{"TIME_SYSTEM":"UTC","ARG_OF_PERICENTER":"75.6094","REV_AT_EPOCH":"12636","MEAN_ELEMENT_THEORY":"SGP4","INCLINATION":"53.0547","OBJECT_TYPE":"PAYLOAD","BSTAR":"0.00176030000000","SITE":"AFETR","MEAN_MOTION_DOT":"0.00026079","EPOCH":"2023-05-05T04:34:03.134784","MEAN_MOTION_DDOT":"0.0000000000000","RCS_SIZE":"LARGE","FILE":"3901296","SEMIMAJOR_AXIS":"6925.163","MEAN_MOTION":"15.06460668","TLE_LINE2":"2 47374  53.0547  48.1108 0001356  75.6094 284.5046 15.06460668126368","TLE_LINE1":"1 47374U 21005AB  23125.19031406  .00026079  00000-0  17603-2 0  9993","ECCENTRICITY":"0.00013560","PERIOD":"95.588","GP_ID":"231279045","PERIAPSIS":"546.089","OBJECT_NAME":"STARLINK-2093","COUNTRY_CODE":"US","LAUNCH_DATE":"2021-01-20","REF_FRAME":"TEME","DECAY_DATE":null,"RA_OF_ASC_NODE":"48.1108","ELEMENT_SET_NO":"999","CENTER_NAME":"EARTH","EPHEMERIS_TYPE":"0","NORAD_CAT_ID":"47374","OBJECT_ID":"2021-005AB","CLASSIFICATION_TYPE":"U","MEAN_ANOMALY":"284.5046","APOAPSIS":"547.967"},{"ECCENTRICITY":"0.00008850","TLE_LINE2":"2 47375  53.0562  48.0946 0000885 112.5430 247.5653 15.06443523127327","TLE_LINE1":"1 47375U 21005AC  23125.19496286  .00023704  00000-0  16030-2 0  9990","MEAN_MOTION":"15.06443523","FILE":"3901296","SEMIMAJOR_AXIS":"6925.215","RCS_SIZE":"LARGE","BSTAR":"0.00160300000000","SITE":"AFETR","MEAN_MOTION_DOT":"0.00023704","EPOCH":"2023-05-05T04:40:44.791104","MEAN_MOTION_DDOT":"0.0000000000000","GP_ID":"231279039","PERIOD":"95.589","TIME_SYSTEM":"UTC","ARG_OF_PERICENTER":"112.5430","OBJECT_TYPE":"PAYLOAD","INCLINATION":"53.0562","REV_AT_EPOCH":"12732","MEAN_ELEMENT_THEORY":"SGP4","ELEMENT_SET_NO":"999","RA_OF_ASC_NODE":"48.0946","APOAPSIS":"547.693","NORAD_CAT_ID":"47375","OBJECT_ID":"2021-005AC","MEAN_ANOMALY":"247.5653","CLASSIFICATION_TYPE":"U","EPHEMERIS_TYPE":"0","CENTER_NAME":"EARTH","PERIAPSIS":"546.467","DECAY_DATE":null,"LAUNCH_DATE":"2021-01-20","REF_FRAME":"TEME","COUNTRY_CODE":"US","OBJECT_NAME":"STARLINK-2094"},{"EPHEMERIS_TYPE":"0","CENTER_NAME":"EARTH","APOAPSIS":"548.099","CLASSIFICATION_TYPE":"U","MEAN_ANOMALY":"276.7173","NORAD_CAT_ID":"47376","OBJECT_ID":"2021-005AD","RA_OF_ASC_NODE":"44.2001","ELEMENT_SET_NO":"999","COUNTRY_CODE":"US","OBJECT_NAME":"STARLINK-2096","DECAY_DATE":null,"REF_FRAME":"TEME","LAUNCH_DATE":"2021-01-20","PERIAPSIS":"546.393","GP_ID":"231294408","PERIOD":"95.593","FILE":"3901949","SEMIMAJOR_AXIS":"6925.381","RCS_SIZE":"LARGE","MEAN_MOTION_DDOT":"0.0000000000000","EPOCH":"2023-05-06T01:28:06.058272","MEAN_MOTION_DOT":"0.00020775","SITE":"AFETR","BSTAR":"0.00140990000000","ECCENTRICITY":"0.00012320","MEAN_MOTION":"15.06389366","TLE_LINE2":"2 47376  53.0564  44.2001 0001232  83.3956 276.7173 15.06389366126497","TLE_LINE1":"1 47376U 21005AD  23126.06118123  .00020775  00000-0  14099-2 0  9997","MEAN_ELEMENT_THEORY":"SGP4","REV_AT_EPOCH":"12649","OBJECT_TYPE":"PAYLOAD","INCLINATION":"53.0564","ARG_OF_PERICENTER":"83.3956","TIME_SYSTEM":"UTC"},{"FILE":"3901944","SEMIMAJOR_AXIS":"6925.393","RCS_SIZE":"LARGE","MEAN_MOTION_DOT":"0.00020482","SITE":"AFETR","BSTAR":"0.00139050000000","MEAN_MOTION_DDOT":"0.0000000000000","EPOCH":"2023-05-06T01:06:51.780096","ECCENTRICITY":"0.00010800","TLE_LINE1":"1 47377U 21005AE  23126.04643264  .00020482  00000-0  13905-2 0  9995","TLE_LINE2":"2 47377  53.0553  44.2711 0001080  87.0463 273.0649 15.06385651126490","MEAN_MOTION":"15.06385651","GP_ID":"231294298","PERIOD":"95.593","TIME_SYSTEM":"UTC","ARG_OF_PERICENTER":"87.0463","MEAN_ELEMENT_THEORY":"SGP4","REV_AT_EPOCH":"12649","OBJECT_TYPE":"PAYLOAD","INCLINATION":"53.0553","ELEMENT_SET_NO":"999","RA_OF_ASC_NODE":"44.2711","EPHEMERIS_TYPE":"0","CENTER_NAME":"EARTH","APOAPSIS":"548.005","NORAD_CAT_ID":"47377","OBJECT_ID":"2021-005AE","MEAN_ANOMALY":"273.0649","CLASSIFICATION_TYPE":"U","PERIAPSIS":"546.510","COUNTRY_CODE":"US","OBJECT_NAME":"STARLINK-2097","DECAY_DATE":null,"LAUNCH_DATE":"2021-01-20","REF_FRAME":"TEME"},{"DECAY_DATE":null,"REF_FRAME":"TEME","LAUNCH_DATE":"2021-01-20","COUNTRY_CODE":"US","OBJECT_NAME":"STARLINK-2098","PERIAPSIS":"546.061","APOAPSIS":"548.341","MEAN_ANOMALY":"297.1457","CLASSIFICATION_TYPE":"U","OBJECT_ID":"2021-005AF","NORAD_CAT_ID":"47378","EPHEMERIS_TYPE":"0","CENTER_NAME":"EARTH","RA_OF_ASC_NODE":"5.1976","ELEMENT_SET_NO":"999","OBJECT_TYPE":"PAYLOAD","INCLINATION":"53.0542","REV_AT_EPOCH":"12702","MEAN_ELEMENT_THEORY":"SGP4","ARG_OF_PERICENTER":"62.9700","TIME_SYSTEM":"UTC","GP_ID":"231291689","PERIOD":"95.592","ECCENTRICITY":"0.00016460","TLE_LINE1":"1 47378U 21005AF  23125.84002184  .00024145  00000-0  16341-2 0  9990","TLE_LINE2":"2 47378  53.0542   5.1976 0001646  62.9700 297.1457 15.06404045127025","MEAN_MOTION":"15.06404045","SEMIMAJOR_AXIS":"6925.336","FILE":"3901820","RCS_SIZE":"LARGE","EPOCH":"2023-05-05T20:09:37.886976","MEAN_MOTION_DDOT":"0.0000000000000","SITE":"AFETR","BSTAR":"0.00163410000000","MEAN_MOTION_DOT":"0.00024145"},{"PERIAPSIS":"546.604","REF_FRAME":"TEME","LAUNCH_DATE":"2021-01-20","DECAY_DATE":null,"OBJECT_NAME":"STARLINK-2099","COUNTRY_CODE":"US","ELEMENT_SET_NO":"999","RA_OF_ASC_NODE":"5.1623","CLASSIFICATION_TYPE":"U","MEAN_ANOMALY":"240.4526","NORAD_CAT_ID":"47379","OBJECT_ID":"2021-005AG","APOAPSIS":"547.888","CENTER_NAME":"EARTH","EPHEMERIS_TYPE":"0","ARG_OF_PERICENTER":"119.6556","TIME_SYSTEM":"UTC","INCLINATION":"53.0547","OBJECT_TYPE":"PAYLOAD","REV_AT_EPOCH":"12702","MEAN_ELEMENT_THEORY":"SGP4","MEAN_MOTION":"15.06389417","TLE_LINE2":"2 47379  53.0547   5.1623 0000927 119.6556 240.4526 15.06389417127023","TLE_LINE1":"1 47379U 21005AG  23125.84739407  .00019847  00000-0  13479-2 0  9998","ECCENTRICITY":"0.00009270","MEAN_MOTION_DDOT":"0.0000000000000","EPOCH":"2023-05-05T20:20:14.847648","BSTAR":"0.00134790000000","SITE":"AFETR","MEAN_MOTION_DOT":"0.00019847","SEMIMAJOR_AXIS":"6925.381","FILE":"3901821","RCS_SIZE":"LARGE","PERIOD":"95.593","GP_ID":"231291297"},{"ELEMENT_SET_NO":"999","RA_OF_ASC_NODE":"19.5012","APOAPSIS":"548.191","CLASSIFICATION_TYPE":"U","MEAN_ANOMALY":"266.6131","OBJECT_ID":"2021-005AH","NORAD_CAT_ID":"47380","EPHEMERIS_TYPE":"0","CENTER_NAME":"EARTH","PERIAPSIS":"546.077","DECAY_DATE":null,"REF_FRAME":"TEME","LAUNCH_DATE":"2021-01-20","COUNTRY_CODE":"US","OBJECT_NAME":"STARLINK-2100","ECCENTRICITY":"0.00015260","TLE_LINE1":"1 47380U 21005AH  23124.88074805  .00024336  00000-0  16459-2 0  9997","TLE_LINE2":"2 47380  53.0562  19.5012 0001526  93.5032 266.6131 15.06425995127684","MEAN_MOTION":"15.06425995","FILE":"3900999","SEMIMAJOR_AXIS":"6925.269","RCS_SIZE":"LARGE","MEAN_MOTION_DDOT":"0.0000000000000","EPOCH":"2023-05-04T21:08:16.631520","SITE":"AFETR","BSTAR":"0.00164590000000","MEAN_MOTION_DOT":"0.00024336","GP_ID":"231245580","PERIOD":"95.590","ARG_OF_PERICENTER":"93.5032","TIME_SYSTEM":"UTC","OBJECT_TYPE":"PAYLOAD","INCLINATION":"53.0562","MEAN_ELEMENT_THEORY":"SGP4","REV_AT_EPOCH":"12768"},{"PERIOD":"95.590","GP_ID":"231291303","MEAN_MOTION":"15.06430311","TLE_LINE2":"2 47381  53.0546  23.6270 0001220  79.2358 280.8768 15.06430311127662","TLE_LINE1":"1 47381U 21005AJ  23125.09592554  .00026167  00000-0  17676-2 0  9994","ECCENTRICITY":"0.00012200","MEAN_MOTION_DDOT":"0.0000000000000","EPOCH":"2023-05-05T02:18:07.966656","SITE":"AFETR","MEAN_MOTION_DOT":"0.00026167","BSTAR":"0.00176760000000","FILE":"3901821","SEMIMAJOR_AXIS":"6925.256","RCS_SIZE":"LARGE","INCLINATION":"53.0546","OBJECT_TYPE":"PAYLOAD","REV_AT_EPOCH":"12766","MEAN_ELEMENT_THEORY":"SGP4","ARG_OF_PERICENTER":"79.2358","TIME_SYSTEM":"UTC","CLASSIFICATION_TYPE":"U","MEAN_ANOMALY":"280.8768","NORAD_CAT_ID":"47381","OBJECT_ID":"2021-005AJ","APOAPSIS":"547.966","CENTER_NAME":"EARTH","EPHEMERIS_TYPE":"0","RA_OF_ASC_NODE":"23.6270","ELEMENT_SET_NO":"999","REF_FRAME":"TEME","LAUNCH_DATE":"2021-01-20","DECAY_DATE":null,"OBJECT_NAME":"STARLINK-2101","COUNTRY_CODE":"US","PERIAPSIS":"546.276"},{"ELEMENT_SET_NO":"999","RA_OF_ASC_NODE":"19.5353","MEAN_ANOMALY":"282.4606","CLASSIFICATION_TYPE":"U","NORAD_CAT_ID":"47382","OBJECT_ID":"2021-005AK","APOAPSIS":"547.909","CENTER_NAME":"EARTH","EPHEMERIS_TYPE":"0","PERIAPSIS":"546.363","REF_FRAME":"TEME","LAUNCH_DATE":"2021-01-20","DECAY_DATE":null,"OBJECT_NAME":"STARLINK-2102","COUNTRY_CODE":"US","TLE_LINE2":"2 47382  53.0559  19.5353 0001116  77.6508 282.4606 15.06425385126737","MEAN_MOTION":"15.06425385","TLE_LINE1":"1 47382U 21005AK  23124.87338067  .00025963  00000-0  17543-2 0  9993","ECCENTRICITY":"0.00011160","MEAN_MOTION_DDOT":"0.0000000000000","EPOCH":"2023-05-04T20:57:40.089888","MEAN_MOTION_DOT":"0.00025963","SITE":"AFETR","BSTAR":"0.00175430000000","FILE":"3901186","SEMIMAJOR_AXIS":"6925.271","RCS_SIZE":"LARGE","PERIOD":"95.591","GP_ID":"231270135","ARG_OF_PERICENTER":"77.6508","TIME_SYSTEM":"UTC","INCLINATION":"53.0559","OBJECT_TYPE":"PAYLOAD","REV_AT_EPOCH":"12673","MEAN_ELEMENT_THEORY":"SGP4"}];
